     2.100          NAVIGATION                              RINEX VERSION / TYPE
fic2rin                                 03/19/2011 03:08:50 PGM / RUN BY / DATE
                                                            END OF HEADER
10 11  3 18 16  0  0.0 -.691707246006D-04 -.102318153949D-11  .000000000000D+00
     .910000000000D+02  .155000000000D+02  .545951312492D-08  .244352307041D+01
     .625848770142D-06  .101117759477D-01  .261142849922D-05  .515357743645D+04
     .489600000000D+06 -.119209289551D-06  .145293133734D+01 -.117346644402D-06
     .949531083850D+00  .324218750000D+03  .702221902064D+00 -.864571727168D-08
     .667884962947D-10  .100000000000D+01  .162700000000D+04  .000000000000D+00
     .340000000000D+01  .000000000000D+00 -.279396772385D-08  .910000000000D+02
     .482406000000D+06  .400000000000D+01
11 11  3 18 16  0  0.0 -.135471578687D-03 -.306954461848D-11  .000000000000D+00
     .420000000000D+02  .423125000000D+02  .597596320857D-08 -.112716279561D+01
     .228360295296D-05  .116638611071D-01  .139586627483D-04  .515350906181D+04
     .489600000000D+06  .255182385445D-06  .133768993638D+00  .223517417908D-06
     .888566663202D+00  .695625000000D+02  .915138589321D+00 -.874179270218D-08
     .308227124611D-09  .100000000000D+01  .162700000000D+04  .000000000000D+00
     .240000000000D+01  .000000000000D+00 -.116415321827D-07  .420000000000D+02
     .482406000000D+06  .400000000000D+01
12 11  3 18 16  0  0.0 -.184024684131D-04  .284217094304D-11  .000000000000D+00
     .280000000000D+02  .753125000000D+01  .469305262734D-08 -.119670638376D+01
     .432133674622D-06  .369242450688D-02  .248104333878D-05  .515377913857D+04
     .489600000000D+06 -.167638063431D-07 -.169545616404D+01 -.540167093277D-07
     .973937456724D+00  .339281250000D+03 -.261508579191D+00 -.847070998193D-08
     .131076888450D-09  .100000000000D+01  .162700000000D+04  .000000000000D+00
     .240000000000D+01  .000000000000D+00 -.121071934700D-07  .280000000000D+02
     .482406000000D+06  .400000000000D+01
13 11  3 18 16  0  0.0  .278578605503D-03 -.147792889038D-11  .000000000000D+00
     .260000000000D+02 -.808750000000D+02  .370479717682D-08  .127183868617D+01
    -.439584255219D-05  .462383578997D-02  .124759972095D-04  .515363234711D+04
     .489600000000D+06  .745058059692D-08  .255766974928D+01 -.132247805595D-06
     .990394205483D+00  .152937500000D+03  .179500910131D+01 -.771567853184D-08
    -.680742641378D-09  .100000000000D+01  .162700000000D+04  .000000000000D+00
     .240000000000D+01  .000000000000D+00 -.111758708954D-07  .260000000000D+02
     .482406000000D+06  .400000000000D+01
14 11  3 18 16  0  0.0  .138321891427D-03  .250111042988D-11  .000000000000D+00
     .430000000000D+02 -.641875000000D+02  .395123601341D-08  .124943544313D+01
    -.336579978466D-05  .559971260373D-02  .116210430861D-04  .515364366341D+04
     .489600000000D+06 -.987201929092D-07  .253393566772D+01  .614672899246D-07
     .983448614228D+00  .170281250000D+03 -.209125642433D+01 -.784675542029D-08
    -.625383192577D-09  .100000000000D+01  .162700000000D+04  .000000000000D+00
     .240000000000D+01  .000000000000D+00 -.884756445885D-08  .430000000000D+02
     .482406000000D+06  .400000000000D+01
16 11  3 18 16  0  0.0 -.158600974828D-03 -.284217094304D-11  .000000000000D+00
     .170000000000D+02  .459375000000D+01  .476948438245D-08  .271381955064D+01
     .294297933578D-06  .628477439750D-02  .221841037273D-05  .515376111221D+04
     .489600000000D+06 -.113621354103D-06 -.167768525842D+01  .447034835815D-07
     .974982002177D+00  .344937500000D+03 -.157231153834D+00 -.847999608302D-08
     .614311302817D-10  .100000000000D+01  .162700000000D+04  .000000000000D+00
     .240000000000D+01  .000000000000D+00 -.977888703346D-08  .170000000000D+02
     .482406000000D+06  .400000000000D+01
17 11  3 18 16  0  0.0  .183982774615D-03  .227373675443D-12  .000000000000D+00
     .510000000000D+02 -.116093750000D+03  .439804033889D-08  .162955274763D+01
    -.591576099396D-05  .619027845096D-02  .109318643808D-04  .515373954964D+04
     .489600000000D+06 -.108033418655D-06 -.634501567731D+00 -.186264514923D-07
     .961177029430D+00  .166906250000D+03 -.242339468400D+01 -.814891086342D-08
    -.515378610445D-09  .100000000000D+01  .162700000000D+04  .000000000000D+00
     .240000000000D+01  .000000000000D+00 -.102445483208D-07  .510000000000D+02
     .482406000000D+06  .400000000000D+01
18 11  3 18 16  0  0.0  .127143226564D-03  .204636307899D-11  .000000000000D+00
     .860000000000D+02  .637500000000D+01  .570880922339D-08  .298658964395D+01
     .242143869400D-06  .119997273432D-01  .208243727684D-05  .515376389122D+04
     .489600000000D+06 -.130385160446D-07  .144841955900D+01 -.217929482460D-06
     .933449049854D+00  .323718750000D+03 -.227013267122D+01 -.874250701765D-08
    -.571452374714D-11  .100000000000D+01  .162700000000D+04  .000000000000D+00
     .240000000000D+01  .000000000000D+00 -.107102096081D-07  .860000000000D+02
     .482406000000D+06  .400000000000D+01
20 11  3 18 16  0  0.0  .487226061523D-04  .113686837722D-12  .000000000000D+00
     .230000000000D+02  .221562500000D+02  .587917346260D-08 -.291532647459D+01
     .122189521790D-05  .470478041098D-02  .225566327572D-05  .515369560242D+04
     .489600000000D+06  .782310962677D-07  .139445234429D+01 -.484287738800D-07
     .933584472181D+00  .320812500000D+03  .127903917773D+01 -.896465912832D-08
     .145363197818D-09  .100000000000D+01  .162700000000D+04  .000000000000D+00
     .240000000000D+01  .000000000000D+00 -.791624188423D-08  .230000000000D+02
     .482406000000D+06  .400000000000D+01
21 11  3 18 16  0  0.0 -.131262000650D-03 -.261479726760D-11  .000000000000D+00
     .600000000000D+02  .803437500000D+02  .503806699857D-08 -.201354842204D+01
     .381655991077D-05  .174445849843D-01  .109709799290D-04  .515378363991D+04
     .489600000000D+06  .139698386192D-06  .393603545430D+00 -.124797224998D-06
     .932341550648D+00  .149968750000D+03 -.239280692194D+01 -.810069456930D-08
     .695028950746D-09  .100000000000D+01  .162700000000D+04  .000000000000D+00
     .240000000000D+01  .000000000000D+00 -.116415321827D-07  .600000000000D+02
     .482406000000D+06  .400000000000D+01
22 11  3 18 16  0  0.0  .151576008648D-03 -.568434188608D-12  .000000000000D+00
     .690000000000D+02  .443750000000D+01  .586631578417D-08  .218336924845D+01
     .169500708580D-06  .541918387171D-02  .230222940445D-05  .515370296288D+04
     .489600000000D+06  .204890966415D-07  .145269748257D+01 -.150874257088D-06
     .931142424494D+00  .320250000000D+03 -.196307976128D+01 -.891787146514D-08
     .275011455331D-10  .100000000000D+01  .162700000000D+04  .000000000000D+00
     .340000000000D+01  .000000000000D+00 -.172294676304D-07  .690000000000D+02
     .482406000000D+06  .400000000000D+01
23 11  3 18 16  0  0.0  .319282524288D-03 -.250111042988D-11  .000000000000D+00
     .103000000000D+03 -.860937500000D+02  .439839749662D-08  .504292848564D+00
    -.458396971226D-05  .704529252835D-02  .111442059278D-04  .515358111954D+04
     .489600000000D+06  .126659870148D-06  .248972643551D+01  .111758708954D-07
     .965103268951D+00  .163000000000D+03  .312869480709D+01 -.813212444991D-08
    -.731101881899D-09  .100000000000D+01  .162700000000D+04  .000000000000D+00
     .240000000000D+01  .000000000000D+00 -.200234353542D-07  .103000000000D+03
     .482406000000D+06  .400000000000D+01
24 11  3 18 16  0  0.0  .374337658286D-03  .318323145621D-11  .000000000000D+00
     .140000000000D+02  .797500000000D+02  .482198656938D-08 -.208311209021D+00
     .409223139286D-05  .595369923394D-02  .120643526316D-04  .515372808838D+04
     .489600000000D+06  .135973095894D-06  .437196590696D+00 -.335276126862D-07
     .948918732674D+00  .141625000000D+03 -.301544021273D+00 -.829248827256D-08
     .588953103689D-09  .100000000000D+01  .162700000000D+04  .000000000000D+00
     .240000000000D+01  .000000000000D+00 -.139698386192D-08  .140000000000D+02
     .482406000000D+06  .400000000000D+01
25 11  3 18 16  0  0.0 -.711749307811D-04 -.682121026330D-12  .000000000000D+00
     .190000000000D+02  .149062500000D+02  .492306220816D-08 -.295212359536D+01
     .832602381706D-06  .526522984728D-03  .224635004997D-05  .515367757034D+04
     .489600000000D+06  .111758708954D-07 -.172448194945D+01  .242143869400D-07
     .962716627823D+00  .338031250000D+03  .884987359093D+00 -.857107130524D-08
     .125719522437D-09  .100000000000D+01  .162700000000D+04  .000000000000D+00
     .240000000000D+01  .000000000000D+00  .465661287308D-08  .190000000000D+02
     .482406000000D+06  .400000000000D+01
26 11  3 18 16  0  0.0 -.148491002619D-03 -.101181285572D-10  .000000000000D+00
     .860000000000D+02 -.720937500000D+02  .397373695067D-08  .180390137425D+00
    -.354833900928D-05  .204018272925D-01  .110827386379D-04  .515364421463D+04
     .489600000000D+06 -.294297933578D-06  .255317192426D+01  .229105353355D-06
     .988037946238D+00  .183937500000D+03  .112877583834D+01 -.806462163815D-08
    -.626097508046D-09  .100000000000D+01  .162700000000D+04  .000000000000D+00
     .240000000000D+01  .000000000000D+00 -.651925802231D-08  .860000000000D+02
     .482406000000D+06  .400000000000D+01
27 11  3 18 16  0  0.0  .246819574386D-03  .375166564481D-11  .000000000000D+00
     .820000000000D+02  .606250000000D+02  .389587656461D-08  .118960419005D+01
     .273063778877D-05  .217219541082D-01  .119619071484D-04  .515370230865D+04
     .489600000000D+06  .242143869400D-07 -.280479211204D+01 -.566244125366D-06
     .980919742353D+00  .159750000000D+03 -.127701844460D+01 -.788532845558D-08
     .306798493674D-09  .100000000000D+01  .162700000000D+04  .000000000000D+00
     .340000000000D+01  .000000000000D+00 -.419095158577D-08  .820000000000D+02
     .482406000000D+06  .400000000000D+01
